CCSDS_OEM_VERS = 1.0
CREATION_DATE  = 2017-05-11T11:19:15
ORIGINATOR     = GMAT USER

META_START
OBJECT_NAME          = MOPSSat_alt_35785_km_RAAN_90_118
OBJECT_ID            = SatId
CENTER_NAME          = Earth
REF_FRAME            = EME2000
TIME_SYSTEM          = UTC
START_TIME           = 2017-01-01T00:00:00.000
USEABLE_START_TIME   = 2017-01-01T00:00:00.000
USEABLE_STOP_TIME    = 2017-01-02T00:00:00.000
STOP_TIME            = 2017-01-02T00:00:00.000
INTERPOLATION        = Lagrange
INTERPOLATION_DEGREE = 7 
META_STOP


                                                                                   

2017-01-01T05:57:30.000  -3.863294391246569e+04  -2.436691581958713e+04   4.237860004088755e-01   7.527971289476807e-01  -2.726260514609379e+00   2.169606636818790e-05
2017-01-01T05:57:40.000  -3.862540786253120e+04  -2.439417332760554e+04   4.240028789281206e-01   7.544126313547943e-01  -2.725240883998421e+00   2.167963266471569e-05
2017-01-01T05:57:50.000  -3.861785566349184e+04  -2.442142063633035e+04   4.242195929910084e-01   7.560269515586823e-01  -2.724220661469006e+00   2.166317514038454e-05
2017-01-01T05:58:00.000  -3.861028732722635e+04  -2.444865773963310e+04   4.244361423576495e-01   7.576400901548993e-01  -2.723199848081192e+00   2.164669380008127e-05
2017-01-01T05:58:10.000  -3.860270286562588e+04  -2.447588463132934e+04   4.246525267876726e-01   7.592520477350252e-01  -2.722178444895760e+00   2.163018864873214e-05
2017-01-01T05:58:20.000  -3.859510229041989e+04  -2.450310130580498e+04   4.248687460452055e-01   7.608628249237565e-01  -2.721156452950743e+00   2.161365969093529e-05
2017-01-01T05:58:30.000  -3.858748561334968e+04  -2.453030775739132e+04   4.250847998939053e-01   7.624724223418927e-01  -2.720133873284849e+00   2.159710693132717e-05
2017-01-01T05:58:40.000  -3.857985284612940e+04  -2.455750398050692e+04   4.253006880980887e-01   7.640808406147455e-01  -2.719110706932160e+00   2.158053037450140e-05
2017-01-01T05:58:50.000  -3.857220400054269e+04  -2.458468996930385e+04   4.255164104199121e-01   7.656880803511420e-01  -2.718086954935317e+00   2.156393002520870e-05
2017-01-01T05:59:00.000  -3.856453908837157e+04  -2.461186571793069e+04   4.257319666214716e-01   7.672941421590551e-01  -2.717062618335762e+00   2.154730588821238e-05
2017-01-01T05:59:10.000  -3.855685812139550e+04  -2.463903122053187e+04   4.259473564647928e-01   7.688990266455377e-01  -2.716037698173703e+00   2.153065796828309e-05
2017-01-01T05:59:20.000  -3.854916111146742e+04  -2.466618647098789e+04   4.261625797097831e-01   7.705027344014452e-01  -2.715012195498059e+00   2.151398627037228e-05
2017-01-01T05:59:30.000  -3.854144807041225e+04  -2.469333146326579e+04   4.263776361169996e-01   7.721052660220716e-01  -2.713986111353106e+00   2.149729079938376e-05
2017-01-01T05:59:40.000  -3.853371901006659e+04  -2.472046619128092e+04   4.265925254465555e-01   7.737066220989975e-01  -2.712959446783738e+00   2.148057156026245e-05
2017-01-01T05:59:50.000  -3.852597394210434e+04  -2.474759064950921e+04   4.268072474629713e-01   7.753068032562332e-01  -2.711932202812295e+00   2.146382855760978e-05
2017-01-01T06:00:00.000  -3.851821287821100e+04  -2.477470483237478e+04   4.270218019303218e-01   7.769058101140610e-01  -2.710904380461730e+00   2.144706179606761e-05
2017-01-01T06:00:10.000  -3.851043583004446e+04  -2.480180873438853e+04   4.272361886133368e-01   7.785036432972311e-01  -2.709875980750388e+00   2.143027128023136e-05
2017-01-01T06:00:20.000  -3.850264280933358e+04  -2.482890234979564e+04   4.274504072746015e-01   7.801003034141014e-01  -2.708847004705242e+00   2.141345701486872e-05
2017-01-01T06:00:30.000  -3.849483382780569e+04  -2.485598567283774e+04   4.276644576766409e-01   7.816957910721685e-01  -2.707817453352097e+00   2.139661900475737e-05
2017-01-01T06:00:40.000  -3.848700889718562e+04  -2.488305869775216e+04   4.278783395819114e-01   7.832901068780003e-01  -2.706787327715552e+00   2.137975725468468e-05
2017-01-01T06:00:50.000  -3.847916802927318e+04  -2.491012141851312e+04   4.280920527507663e-01   7.848832514220603e-01  -2.705756628828990e+00   2.136287176961130e-05
2017-01-01T06:01:00.000  -3.847131123583971e+04  -2.493717382918095e+04   4.283055969442040e-01   7.864752252992054e-01  -2.704725357721166e+00   2.134596255445122e-05
2017-01-01T06:01:10.000  -3.846343852866936e+04  -2.496421592376169e+04   4.285189719227630e-01   7.880660291004388e-01  -2.703693515421586e+00   2.132902961416041e-05
2017-01-01T06:01:20.000  -3.845554991937844e+04  -2.499124769682758e+04   4.287321774514170e-01   7.896556634494066e-01  -2.702661102936830e+00   2.131207295334657e-05
2017-01-01T06:01:30.000  -3.844764541959637e+04  -2.501826914289486e+04   4.289452132946655e-01   7.912441289657952e-01  -2.701628121274288e+00   2.129509257666088e-05
2017-01-01T06:01:40.000  -3.843972504091918e+04  -2.504528025658449e+04   4.291580792178025e-01   7.928314262747865e-01  -2.700594571436046e+00   2.127808848869604e-05
2017-01-01T06:01:50.000  -3.843178879503406e+04  -2.507228103218965e+04   4.293707749834990e-01   7.944175559815829e-01  -2.699560454435320e+00   2.126106069426189e-05
2017-01-01T06:02:00.000  -3.842383669361695e+04  -2.509927146403280e+04   4.295833003546259e-01   7.960025186924494e-01  -2.698525771282909e+00   2.124400919815656e-05
2017-01-01T06:02:10.000  -3.841586874835511e+04  -2.512625154638585e+04   4.297956550936238e-01   7.975863150100080e-01  -2.697490522990218e+00   2.122693400521886e-05
2017-01-01T06:02:20.000  -3.840788497094221e+04  -2.515322127349265e+04   4.300078389626848e-01   7.991689455345935e-01  -2.696454710568477e+00   2.120983512030588e-05
2017-01-01T06:02:30.000  -3.839988537306928e+04  -2.518018063959501e+04   4.302198517239550e-01   8.007504108657552e-01  -2.695418335027679e+00   2.119271254828536e-05
2017-01-01T06:02:40.000  -3.839186996642197e+04  -2.520712963894264e+04   4.304316931396103e-01   8.023307116028376e-01  -2.694381397376209e+00   2.117556629402567e-05
2017-01-01T06:02:50.000  -3.838383876265250e+04  -2.523406826588978e+04   4.306433629726216e-01   8.039098483506669e-01  -2.693343898617165e+00   2.115839636234733e-05
2017-01-01T06:03:00.000  -3.837579177339790e+04  -2.526099651483054e+04   4.308548609862410e-01   8.054878217157341e-01  -2.692305839750800e+00   2.114120275805078e-05
2017-01-01T06:03:10.000  -3.836772901028045e+04  -2.528791438019894e+04   4.310661869440053e-01   8.070646323062050e-01  -2.691267221774539e+00   2.112398548592111e-05
2017-01-01T06:03:20.000  -3.835965048488761e+04  -2.531482185653267e+04   4.312773406102313e-01   8.086402807356329e-01  -2.690228045680475e+00   2.110674455067392e-05
2017-01-01T06:03:30.000  -3.835155620880140e+04  -2.534171893837716e+04   4.314883217492658e-01   8.102147676173493e-01  -2.689188312459110e+00   2.108947995702969e-05
2017-01-01T06:03:40.000  -3.834344619360146e+04  -2.536860562027588e+04   4.316991301254114e-01   8.117880935639078e-01  -2.688148023099731e+00   2.107219170971582e-05
2017-01-01T06:03:50.000  -3.833532045087211e+04  -2.539548189674297e+04   4.319097655027046e-01   8.133602591854411e-01  -2.687107178591418e+00   2.105487981349417e-05
2017-01-01T06:04:00.000  -3.832717899221002e+04  -2.542234776224241e+04   4.321202276447617e-01   8.149312650884883e-01  -2.686065779923916e+00   2.103754427316489e-05
2017-01-01T06:04:10.000  -3.831902182919981e+04  -2.544920321126682e+04   4.323305163153913e-01   8.165011118805825e-01  -2.685023828084564e+00   2.102018509351909e-05
2017-01-01T06:04:20.000  -3.831084897352312e+04  -2.547604823798452e+04   4.325406312758414e-01   8.180698001496745e-01  -2.683981324072075e+00   2.100280227955812e-05
2017-01-01T06:04:30.000  -3.830266043682671e+04  -2.550288283666738e+04   4.327505722881399e-01   8.196373304890870e-01  -2.682938268879852e+00   2.098539583622593e-05
2017-01-01T06:04:40.000  -3.829445623077146e+04  -2.552970700153152e+04   4.329603391138506e-01   8.212037034882210e-01  -2.681894663502190e+00   2.096796576850827e-05
2017-01-01T06:04:50.000  -3.828623636684367e+04  -2.555652072735451e+04   4.331699315188999e-01   8.227689197685978e-01  -2.680850508910277e+00   2.095051208104390e-05
2017-01-01T06:05:00.000  -3.827800085654308e+04  -2.558332400885964e+04   4.333793492687606e-01   8.243329799478918e-01  -2.679805806076136e+00   2.093303477851217e-05
2017-01-01T06:05:10.000  -3.826974971134056e+04  -2.561011684085560e+04   4.335885921295464e-01   8.258958846481045e-01  -2.678760555967207e+00   2.091553386554722e-05
2017-01-01T06:05:20.000  -3.826148294278279e+04  -2.563689921788808e+04   4.337976598652779e-01   8.274576344751584e-01  -2.677714759559821e+00   2.089800934694993e-05
2017-01-01T06:05:30.000  -3.825320056241516e+04  -2.566367113449872e+04   4.340065522399199e-01   8.290182300340870e-01  -2.676668417829218e+00   2.088046122753437e-05
2017-01-01T06:05:40.000  -3.824490258178090e+04  -2.569043258522466e+04   4.342152690173699e-01   8.305776719289718e-01  -2.675621531749530e+00   2.086288951212260e-05
2017-01-01T06:05:50.000  -3.823658901250300e+04  -2.571718356434251e+04   4.344238099594767e-01   8.321359607480959e-01  -2.674574102303913e+00   2.084529420572701e-05
2017-01-01T06:06:00.000  -3.822825986617461e+04  -2.574392406621366e+04   4.346321748287199e-01   8.336930970840007e-01  -2.673526130470932e+00   2.082767531330984e-05
2017-01-01T06:06:10.000  -3.821991515440206e+04  -2.577065408514798e+04   4.348403633871520e-01   8.352490815255571e-01  -2.672477617229917e+00   2.081003283987672e-05
2017-01-01T06:06:20.000  -3.821155488861659e+04  -2.579737361600719e+04   4.350483754010964e-01   8.368039146930912e-01  -2.671428563537304e+00   2.079236679007132e-05
2017-01-01T06:06:30.000  -3.820317908026239e+04  -2.582408265360140e+04   4.352562106364472e-01   8.383575972032495e-01  -2.670378970350299e+00   2.077467716858002e-05
